0 FENGYUN 1C DEB
1 33613U 99025DCW 13281.86674128  .00001405  00000-0  83283-3 0  2549
2 33613 099.0671 300.6916 0040707 173.1565 187.0480 14.08863468281378
0 FENGYUN 1C DEB
1 33613U 99025DCW 13282.86099510  .00001499  00000-0  88702-3 0  2551
2 33613 099.0646 301.6859 0040225 170.3081 189.9500 14.08869346281515
0 FENGYUN 1C DEB
1 33613U 99025DCW 13285.27559596  .00001537  00000-0  90910-3 0  2562
2 33613 099.0663 304.1155 0039945 163.7628 196.4831 14.08877980281851
0 FENGYUN 1C DEB
1 33613U 99025DCW 13287.83223307  .00001566  00000-0  92474-3 0  2574
2 33613 099.0676 306.6896 0040861 155.7004 204.6258 14.08886974282211
0 FENGYUN 1C DEB
1 33613U 99025DCW 13290.24681583  .00001619  00000-0  95611-3 0  2583
2 33613 099.0639 309.1055 0038710 150.0356 210.3365 14.08896657282552
0 FENGYUN 1C DEB
1 33613U 99025DCW 13293.30052756  .00001649  00000-0  97222-3 0  2591
2 33613 099.0635 312.1754 0040248 141.9138 218.5158 14.08907728282983
0 FENGYUN 1C DEB
1 33613U 99025DCW 13294.29475054  .00001709  00000-0  10071-2 0  2605
2 33613 099.0622 313.1773 0038657 137.6274 222.8043 14.08912708283127
0 FENGYUN 1C DEB
1 33613U 99025DCW 13295.28897198  .00001869  00000-0  10997-2 0  2617
2 33613 099.0583 314.1742 0036906 134.7861 225.7440 14.08921199283267
